0184P         2020 10 26.1103  1.696951  0.552100  186.4737  173.4428    4.5779  20190228  13.5  4.0  184P/Lovas                                               MPC105242
0185P         2018 01 27.6281  0.933881  0.698809  181.9099  214.0991   13.9940  20190228  15.0  4.0  185P/Petriew                                             MPC109593
0186P         2019 05  4.8139  4.389481  0.123598  283.7585  327.0965   28.4074  20190228   7.5  4.0  186P/Garradd                                             MPC_10028
0187P         2018 05 23.3646  3.879734  0.153956  132.8774  109.9196   13.6264  20190228   9.0  4.0  187P/LINEAR                                              MPC104795
0188P         2017 02 16.6911  2.563315  0.414685   26.6738  358.9627   10.5131  20190228  11.5  4.0  188P/LINEAR-Mueller                                      MPC106349
0189P         2017 08  6.0406  1.212983  0.588472   16.2321  281.7408   20.0710  20190228  19.0  4.0  189P/NEAT                                                MPC106349
0190P         2016 04  7.3174  2.033247  0.520246   50.3584  335.5539    2.1730  20190228  13.0  4.0  190P/Mueller                                             MPC_75724
0191P         2021 03 16.4594  2.210540  0.392352  284.0112   98.3810    8.8066  20190228  13.0  4.0  191P/McNaught                                            MPC_92277
0192P         2024 05 26.5761  1.476404  0.772128  312.8679   51.6695   24.5150  20190228  15.0  4.0  192P/Shoemaker-Levy                                      MPC_75724
0193P         2021 08 26.2122  2.166866  0.393767    8.3109  335.1948   10.6870  20190228  14.0  4.0  193P/LINEAR-NEAT                                         MPC_91618
0194P         2016 03  2.0825  1.692263  0.576037  130.6228  351.8588   11.1402  20190228  16.0  4.0  194P/LINEAR                                              MPC_98566
0195P         2025 07 30.6255  4.454588  0.313863  249.6534  243.0833   36.3431  20190228   8.5  4.0  195P/Hill                                                MPC_75724
0196P         2022 10 30.5293  2.164186  0.429553   12.4262   24.2441   19.3277  20190228  13.5  4.0  196P/Tichy                                               MPC_92985
0197P         2018 01 28.8542  1.060197  0.630121  188.7049   66.3929   25.5566  20190228  16.5  2.0  197P/LINEAR                                              MPC_94676
0198P         2018 12 13.9006  2.005934  0.443218   69.2920  358.2791    1.3379  20190228  12.5  4.0  198P/ODAS                                                MPC_65937
0199P         2023 08  7.4700  2.918325  0.505680  191.4724   92.3987   24.9348  20190228  10.0  4.0  199P/Shoemaker                                           MPC_75725
0200P         2019 07 28.4856  3.297244  0.331545  133.9762  234.8008   12.1058  20190228   9.0  4.0  200P/Larsen                                              MPC111774
0201P         2021 05 23.6023  1.246501  0.634304   28.0309   32.1309    6.5785  20190228  14.0  4.0  201P/LONEOS                                              MPC_93588
0202P         2016 06 21.0522  2.579901  0.328068  260.0014  193.4229    2.1480  20190228  13.5  4.0  202P/Scotti                                              MPC103849
0203P         2020 03  5.4109  3.199270  0.314723  154.9418  290.3560    2.9732  20190228  14.5  2.0  203P/Korlevic                                            MPC112393
0204P         2015 12 12.6536  1.910455  0.475664  354.8559  108.8356    6.6142  20190228  14.0  4.0  204P/LINEAR-NEAT                                         MPC_98566
0205P         2022 01 13.9137  1.533604  0.567283  154.1592  179.6027   15.2917  20190228  13.0  4.0  205P/Giacobini                                           MPC_98566
0206P         2021 03  4.4382  1.562431  0.551793  189.3756  202.5361   33.7084  20190228  19.0  4.0  206P/Barnard-Boattini                                    MPC_75725
0207P         2016 07  1.1922  0.933202  0.758833  271.2745  200.4182   10.1551  20190228  16.0  4.0  207P/NEAT                                                MPC_75725
0208P         2016 07  1.6592  2.540939  0.372535  310.3835   36.3976    4.4079  20190228  12.5  4.0  208P/McMillan                                            MPC101100
0209P         2019 06 12.8047  0.967527  0.673282  152.4973   62.7717   21.2586  20190228  17.0  2.0  209P/LINEAR                                              MPC_90771
0210P         2020 04  8.0156  0.529632  0.832899  345.8459   93.8286   10.2564  20190228  13.5  4.0  210P/Christensen                                         MPC105242
0211P         2016 01 26.8086  2.341117  0.340992    4.1698  117.1311   18.9094  20190228  12.5  4.0  211P/Hill                                                MPC_96868
0212P         2016 09 11.0142  1.631542  0.582326   14.9173   98.7088   22.5525  20190228  17.0  2.0  212P/NEAT                                                MPC104795
0213P         2017 09 24.4878  1.983114  0.407820    5.5771  311.3097   10.3783  20190228  10.5  4.0  213P/Van-Ness                                            MPC110085
0214P         2015 11 12.2012  1.855615  0.486584  190.3049  348.2740   15.1949  20190228  13.0  4.0  214P/LINEAR                                              MPC_92986
0215P         2019 11 16.7704  3.605148  0.168643  261.8206   56.7132   10.5836  20190228  11.0  4.0  215P/NEAT                                                MPC102102
0216P         2016 05 30.4266  2.147619  0.445266  151.4345  359.8354    9.0477  20190228  13.0  4.0  216P/LINEAR                                              MPC_10028
0217P         2017 07 16.5400  1.234541  0.687759  246.9075  125.4573   12.8598  20190228  12.0  4.0  217P/LINEAR                                              MPC108598
0218P         2020 10  3.6732  1.170083  0.622017   59.7289  176.0018    2.7251  20190228  16.0  4.0  218P/LINEAR                                              MPC105242
0219P         2017 02 20.6297  2.363485  0.352914  107.3496  231.0216   11.5294  20190228  11.0  4.0  219P/LINEAR                                              MPC_10028
0220P         2020 12 10.8668  1.552326  0.501583  180.5825  150.1115    8.1276  20190228  15.0  4.0  220P/McNaught                                            MPC105242
0221P         2021 12 17.7489  1.754921  0.492684   39.9638  229.7473   11.4281  20190228  14.5  4.0  221P/LINEAR                                              MPC_93589
0222P         2019 06  5.0492  0.828365  0.714264  346.2126    6.8151    5.0942  20190228  20.0  4.0  222P/LINEAR                                              MPC_92277
0223P         2019 01 27.2688  2.430873  0.415391   37.8243  346.7924   27.0139  20190228  12.0  4.0  223P/Skiff                                               MPC112394
0224P         2016 05 22.8788  2.014675  0.412205   16.8162   40.4798   13.3922  20190228  15.5  4.0  224P/LINEAR-NEAT                                         MPC_75727
0225P         2016 08 16.5505  1.325103  0.637189    3.8968   14.1832   21.3350  20190228  18.0  4.0  225P/LINEAR                                              MPC_75727
0226P         2016 09  4.5716  1.778019  0.528197  341.1042   54.0067   44.0040  20190228  12.5  4.0  226P/Pigott-LINEAR-Kowalski                              MPC106349
0227P         2017 06 22.3853  1.781460  0.502575   90.0929   49.7628    6.5218  20190228  16.5  2.0  227P/Catalina-LINEAR                                     MPC102956
0228P         2020 03 10.7759  3.435609  0.177333  115.3069   31.0039    7.9098  20190228  14.5  2.0  228P/LINEAR                                              MPC107687
0229P         2017 05 20.4803  2.454610  0.376022  224.0640  157.8948   26.0727  20190228  13.0  4.0  229P/Gibbs                                               MPC106349
0230P         2022 03  9.9481  1.501174  0.560682  313.5376  107.7727   15.2505  20190228  13.0  4.0  230P/LINEAR                                              MPC110497
0231P         2019 06 14.1826  3.022493  0.247687   42.7367  133.0287   12.3337  20190228  14.5  2.0  231P/LINEAR-NEAT                                         MPC102102
0232P         2019 04  6.5968  2.984526  0.334764   53.5508   56.0304   14.6306  20190228  11.5  4.0  232P/Hill                                                MPC112394
0233P         2020 10  1.8433  1.782720  0.411535   27.0972   74.9266   11.2842  20190228  15.0  4.0  233P/La-Sagra                                            MPC_92986
0234P         2017 05 30.4762  2.841911  0.253654  357.6359  179.6122   11.5160  20190228  12.0  4.0  234P/LINEAR                                              MPC110497
0235P         2018 03 17.8677  2.731206  0.316976  333.8343  204.4219    8.8952  20190228  12.0  4.0  235P/LINEAR                                              MPC110497
0236P         2017 11 20.1249  1.836807  0.507949  119.2310  245.6711   16.3341  20190228  14.0  4.0  236P/LINEAR                                              MPC107688
0237P         2016 10 12.0281  1.985042  0.434787   25.1167  245.4226   14.0251  20190228  14.5  2.0  237P/LINEAR                                              MPC109593
0238P         2016 10 22.0311  2.364995  0.252318  324.7989   51.6431    1.2646  20190228  14.5  4.0  238P/Read                                                MPC107688
0239P         2019 01 10.1605  1.649476  0.631002  220.3790  255.9084   11.3056  20190228  17.5  2.0  239P/LINEAR                                              MPC112394
0240P         2018 05 15.8034  2.133623  0.448813  352.0722   74.9270   23.5042  20190228  11.0  4.0  240P/NEAT                                                MPC109593
0241P         2021 07 26.0807  1.939040  0.609166  110.5833  305.6422   20.9199  20190228  13.5  4.0  241P/LINEAR                                              MPC_75729
0242P         2025 01 10.2073  3.955043  0.277606  246.4490  180.5818   32.4845  20190228   8.0  4.0  242P/Spahr                                               MPC_81861
